SWARM B                 
1 39451U 13067A   26197.59227105  .00001943  00000+0  68323-4 0  9997
2 39451  87.7461 333.3841 0002268  83.7309 276.4199 15.28722386687733
SWARM A                 
1 39452U 13067B   26197.57204403  .00006072  00000+0  10215-3 0  9996
2 39452  87.3295  45.3141 0003330  93.1620 267.0022 15.51475350710808
SWARM C                 
1 39453U 13067C   26197.57195133  .00006067  00000+0  10207-3 0  9991
2 39453  87.3295  43.8950 0003324  93.4281 266.7360 15.51474677710766
BRITE-CA1 (TORONTO)     
1 40020U 14033L   26197.59336283  .00000508  00000+0  83872-4 0  9995
2 40020  97.9774 325.9852 0078542 181.7768 178.3173 14.72724091646541
OCO 2                   
1 40059U 14035A   26197.61449143  .00000170  00000+0  47680-4 0  9994
2 40059  98.2020 138.4607 0001435  81.3990 278.7371 14.57132822640339
BRITE-PL2 (HEWELIUSZ)   
1 40119U 14049B   26197.56196338  .00000473  00000+0  49059-4 0  9993
2 40119  97.9121 309.7936 0014201  17.7505 342.4208 14.94688853645831
MMS 1                   
1 40482U 15011A   26197.66670139 -.00001402  00000+0  00000+0 0  9995
2 40482  72.4966 348.4191 8303491 168.1022  65.5748  0.28336015  1365
MMS 2                   
1 40483U 15011B   26197.66670139 -.00001403  00000+0  00000+0 0  9997
2 40483  72.5006 348.4181 8306304 168.1050  65.5619  0.28335950  1362
MMS 3                   
1 40484U 15011C   26197.66670139 -.00001402  00000+0  00000+0 0  9997
2 40484  72.4997 348.4303 8304637 168.1124  65.5377  0.28336139  1334
MMS 4                   
1 40485U 15011D   26197.66670139 -.00001402  00000+0  00000+0 0  9998
2 40485  72.4952 348.4137 8304590 168.1223  65.5331  0.28336159  1364
ASTROSAT                
1 40930U 15052A   26197.62405881  .00001088  00000+0  50830-4 0  9994
2 40930   5.9974 303.4655 0007378  95.8785 264.2184 14.82553411584205
DAMPE                   
1 41173U 15078A   26197.58327513  .00000989  00000+0  35727-4 0  9999
2 41173  97.4556 203.1966 0011427 340.5646  19.5158 15.30856681589042
PISAT                   
1 41784U 16059B   26197.50135378  .00000433  00000+0  81373-4 0  9997
2 41784  97.8192 196.6965 0030479 110.8312 249.6163 14.69031004524047
HXMT (HUIYAN)           
1 42758U 17034A   26197.60109766  .00002322  00000+0  12008-3 0  9993
2 42758  43.0154  19.2286 0032126 329.5171  30.3810 15.18696403502134
FLYING LAPTOP           
1 42831U 17042G   26197.64636644  .00002096  00000+0  16671-3 0  9996
2 42831  97.4811 352.0719 0019651  27.8785 332.3488 15.01319059490879
ZHANGHENG 1-01 (CSES-1) 
1 43194U 18015C   26197.61469890  .00003890  00000+0  18014-3 0  9990
2 43194  97.6893   3.8614 0016519 160.1153 200.0729 15.20618702469119
SALSAT                  
1 46495U 20068K   26197.24901140  .00003822  00000+0  13369-3 0  9999
2 46495  97.8856 202.0925 0009321 188.9749 171.1325 15.30180346319806
IXPE                    
1 49954U 21121A   26197.66670139  .00006518  00000+0  32981-3 0  9996
2 49954   0.2303  94.3290 0006694 165.7738 325.5639 15.10496639  5642
SMILE                   
1 69123U 26109A   26194.95939329  .00000936  00000+0  00000+0 0  9996
2 69123  70.0512 206.6048 8313707 286.9544   0.1879  0.47500629    65
